     3.03           NAVIGATION DATA     M: Mixed            RINEX VERSION / TYPE
rinex ON            NSL                 20210712 215759 UTC PGM / RUN BY / DATE
GPSA   4.6566e-09  1.4901e-08 -5.9605e-08 -1.1921e-07       IONOSPHERIC CORR
GPSB   7.9872e+04  8.1920e+04 -6.5536e+04 -4.5875e+05       IONOSPHERIC CORR
GPUT -9.3132257462e-10-2.664535259e-15 319488  118          TIME SYSTEM CORR
GLUT  1.5832483768e-08 0.000000000e+00      0    0          TIME SYSTEM CORR
GLGP  9.3132257462e-09 0.000000000e+00      0    0          TIME SYSTEM CORR
    18    18   137     7                                    LEAP SECONDS
                                                            END OF HEADER
G23 2021 07 12 14 00 00 8.561043068767e-05-5.115907697473e-12 0.000000000000e+00
     6.400000000000e+01-1.222187500000e+02 4.276249551530e-09 1.830778470929e-01
    -6.582587957382e-06 1.378255663440e-03 7.746741175652e-06 5.153663402557e+03
     1.368000000000e+05 4.656612873077e-08 2.981523314334e+00 1.862645149231e-09
     9.651716296496e-01 2.362187500000e+02 2.614280228751e+00-7.988904198498e-09
    -3.632294156774e-10 0.000000000000e+00 2.166000000000e+03 0.000000000000e+00
     2.000000000000e+00 0.000000000000e+00-8.381903171539e-09 8.320000000000e+02
     1.367160000000e+05 0.000000000000e+00
G25 2021 07 12 14 00 00 1.721857115626e-04 6.707523425575e-12 0.000000000000e+00
     9.600000000000e+01 6.562500000000e+00 4.543760694443e-09-1.008296157845e+00
     5.699694156647e-07 9.834019467235e-03 9.464100003242e-06 5.153604080200e+03
     1.368000000000e+05 9.126961231232e-08-1.364602333279e-01 2.346932888031e-07
     9.606918775185e-01 1.995625000000e+02 9.722497013026e-01-7.954974213749e-09
    -4.282321233011e-10 0.000000000000e+00 2.166000000000e+03 0.000000000000e+00
     2.000000000000e+00 0.000000000000e+00 5.587935447693e-09 9.600000000000e+01
     1.367160000000e+05 0.000000000000e+00
G32 2021 07 12 14 00 00 1.445133239031e-05-1.932676241267e-12 0.000000000000e+00
     1.500000000000e+01-8.187500000000e+00 4.201960742817e-09-2.784293453753e+00
    -3.669410943985e-07 5.033351015300e-03 1.078099012375e-05 5.153696023941e+03
     1.368000000000e+05-4.656612873077e-08-2.235765161873e+00 1.303851604462e-08
     9.573400118199e-01 1.678437500000e+02-2.359622812379e+00-7.681391389355e-09
     5.889531036893e-10 0.000000000000e+00 2.166000000000e+03 0.000000000000e+00
     2.000000000000e+00 0.000000000000e+00 4.656612873077e-10 1.500000000000e+01
     1.367160000000e+05 0.000000000000e+00
G10 2021 07 12 14 00 00-1.605600118637e-04-7.617018127348e-12 0.000000000000e+00
     4.600000000000e+01-1.239687500000e+02 4.060526280075e-09-1.431434506639e+00
    -6.496906280518e-06 6.716798758134e-03 7.854774594307e-06 5.153679994583e+03
     1.368000000000e+05 1.173466444016e-07 3.005236246484e+00-1.173466444016e-07
     9.701777777415e-01 2.350625000000e+02-2.571697860921e+00-7.817111328350e-09
    -2.932264997750e-10 0.000000000000e+00 2.166000000000e+03 0.000000000000e+00
     2.000000000000e+00 0.000000000000e+00 2.328306436539e-09 4.600000000000e+01
     1.367460000000e+05 0.000000000000e+00
G12 2021 07 12 14 00 00-6.760051473975e-05-5.229594535194e-12 0.000000000000e+00
     2.800000000000e+01 1.687500000000e+01 4.252319983339e-09-7.887686432657e-01
     1.046806573868e-06 8.307127049193e-03 1.029483973980e-05 5.153713914871e+03
     1.368000000000e+05-7.264316082001e-08-6.244949754652e-02 1.601874828339e-07
     9.733651309876e-01 1.950000000000e+02 1.228512857520e+00-7.840326581072e-09
    -3.860875106660e-10 0.000000000000e+00 2.166000000000e+03 0.000000000000e+00
     2.000000000000e+00 0.000000000000e+00-1.257285475731e-08 2.800000000000e+01
     1.367160000000e+05 0.000000000000e+00
G18 2021 07 12 14 00 00 3.414656966925e-04-2.614797267597e-12 0.000000000000e+00
     5.000000000000e+01-3.656250000000e+00 4.683766526247e-09 9.118847566889e-01
    -2.793967723846e-07 1.646790886298e-03 3.818422555923e-07 5.153655170441e+03
     1.368000000000e+05 5.587935447693e-09 1.981996760818e+00-5.960464477539e-08
     9.683876838855e-01 3.715000000000e+02 2.885458403862e+00-8.444280309598e-09
    -1.567922453121e-10 0.000000000000e+00 2.166000000000e+03 0.000000000000e+00
     2.000000000000e+00 0.000000000000e+00-8.381903171539e-09 5.620000000000e+02
     1.367460000000e+05 0.000000000000e+00
G10 2021 07 12 16 00 00-1.606149598956e-04-7.617018127348e-12 0.000000000000e+00
     4.700000000000e+01-1.190312500000e+02 4.241962409047e-09-3.812496323489e-01
    -6.429851055145e-06 6.717681884766e-03 7.223337888718e-06 5.153681123734e+03
     1.440000000000e+05-2.421438694000e-08 3.005179647646e+00 9.126961231232e-08
     9.701742945336e-01 2.446562500000e+02-2.571708127680e+00-8.069979004161e-09
    -3.639437311458e-10 0.000000000000e+00 2.166000000000e+03 0.000000000000e+00
     2.000000000000e+00 0.000000000000e+00 2.328306436539e-09 4.700000000000e+01
     1.368060000000e+05 0.000000000000e+00
G25 2021 07 12 16 00 00 1.722341403365e-04 6.707523425575e-12 0.000000000000e+00
     1.070000000000e+02-2.281250000000e+00 4.543760694443e-09 4.189927725022e-02
    -1.844018697739e-07 9.832901414484e-03 9.734183549881e-06 5.153601940155e+03
     1.440000000000e+05-6.146728992462e-08-1.365182058455e-01 1.676380634308e-07
     9.606884323465e-01 1.984375000000e+02 9.722783949778e-01-8.056407010261e-09
    -4.221604418198e-10 0.000000000000e+00 2.166000000000e+03 0.000000000000e+00
     2.000000000000e+00 0.000000000000e+00 5.587935447693e-09 1.070000000000e+02
     1.368060000000e+05 0.000000000000e+00
G32 2021 07 12 16 00 00 1.443689689040e-05-1.932676241267e-12 0.000000000000e+00
     1.600000000000e+01-6.500000000000e+00 4.345538151964e-09-1.734356128609e+00
    -3.520399332047e-07 5.034323665313e-03 1.052580773830e-05 5.153693204880e+03
     1.440000000000e+05 7.823109626770e-08-2.235819580963e+00-1.825392246246e-07
     9.573436076725e-01 1.786875000000e+02-2.359394380646e+00-7.722107371054e-09
     4.053740283126e-10 0.000000000000e+00 2.166000000000e+03 0.000000000000e+00
     2.000000000000e+00 0.000000000000e+00 4.656612873077e-10 1.600000000000e+01
     1.368060000000e+05 0.000000000000e+00
G23 2021 07 12 16 00 00 8.557364344597e-05-5.115907697473e-12 0.000000000000e+00
     6.500000000000e+01-1.173437500000e+02 4.339823628217e-09 1.232232493509e+00
    -6.198883056641e-06 1.380007714033e-03 6.619840860367e-06 5.153667659760e+03
     1.440000000000e+05-3.725290298462e-09 2.981465464701e+00-4.656612873077e-08
     9.651687506268e-01 2.515937500000e+02 2.615309927047e+00-8.057121325729e-09
    -3.489431063096e-10 0.000000000000e+00 2.166000000000e+03 0.000000000000e+00
     2.000000000000e+00 0.000000000000e+00-8.381903171539e-09 8.330000000000e+02
     1.368060000000e+05 0.000000000000e+00
G12 2021 07 12 16 00 00-6.763869896531e-05-5.229594535194e-12 0.000000000000e+00
     2.900000000000e+01 3.531250000000e+00 4.190174537588e-09 2.613065341117e-01
    -7.450580596924e-08 8.305368945003e-03 1.000054180622e-05 5.153710340500e+03
     1.440000000000e+05-1.676380634308e-07-6.250584476218e-02 5.215406417847e-08
     9.733622826861e-01 1.970625000000e+02 1.228593148316e+00-7.839612265604e-09
    -4.403754862638e-10 0.000000000000e+00 2.166000000000e+03 0.000000000000e+00
     2.000000000000e+00 0.000000000000e+00-1.257285475731e-08 2.900000000000e+01
     1.368060000000e+05 0.000000000000e+00
G18 2021 07 12 16 00 00 3.414475359023e-04-2.614797267597e-12 0.000000000000e+00
     5.100000000000e+01 5.937500000000e+00 4.746626287466e-09 1.961088184109e+00
     4.526227712631e-07 1.647132216021e-03 9.741634130478e-07 5.153658306122e+03
     1.440000000000e+05 1.452863216400e-07 1.981934999342e+00 7.264316082001e-08
     9.683868339301e-01 3.643437500000e+02 2.886447950909e+00-8.497139654259e-09
    -1.000041655749e-11 0.000000000000e+00 2.166000000000e+03 0.000000000000e+00
     2.000000000000e+00 0.000000000000e+00-8.381903171539e-09 5.630000000000e+02
     1.369560000000e+05 0.000000000000e+00
G31 2021 07 12 16 00 00-1.282352022827e-04-2.160049916711e-12 0.000000000000e+00
     1.490000000000e+02 4.375000000000e+00 4.920204946285e-09 4.967678437347e-01
     3.725290298462e-07 1.003979053348e-02 4.954636096954e-06 5.153557922363e+03
     1.440000000000e+05 1.192092895508e-07-1.156070304089e+00 1.750886440277e-07
     9.554045829044e-01 2.796562500000e+02 2.686166801629e-01-8.308917528338e-09
     5.893102614235e-11 0.000000000000e+00 2.166000000000e+03 0.000000000000e+00
     2.000000000000e+00 0.000000000000e+00-1.303851604462e-08 1.490000000000e+02
     1.435080000000e+05 0.000000000000e+00
G24 2021 07 12 16 00 00 1.713819801807e-04 1.455191522837e-11 0.000000000000e+00
     6.900000000000e+01 1.375000000000e+01 5.391295997690e-09 1.984109147230e+00
     6.183981895447e-07 1.121725433040e-02 5.194917321205e-06 5.153714921951e+03
     1.440000000000e+05-2.719461917877e-07-1.252402935884e+00-1.024454832077e-07
     9.344794415739e-01 2.655937500000e+02 7.431451320748e-01-8.469638508726e-09
     2.017941198208e-10 0.000000000000e+00 2.166000000000e+03 0.000000000000e+00
     2.000000000000e+00 0.000000000000e+00 2.793967723846e-09 6.900000000000e+01
     1.371360000000e+05 0.000000000000e+00
R04 2021 07 12 14 15 30 9.547825902700e-05 1.818989403546e-12 1.377300000000e+05
     2.372140625000e+03-3.107793807983e+00 1.862645149231e-09 0.000000000000e+00
     1.057328076172e+04 5.646533966064e-01-9.313225746155e-10 6.000000000000e+00
     2.312072851563e+04 6.027317047119e-02-1.862645149231e-09 0.000000000000e+00
G25 2021 07 12 15 59 44 1.722336746752e-04 6.707523425575e-12 0.000000000000e+00
     1.000000000000e+00-2.281250000000e+00 4.543046378974e-09 3.956637788131e-02
    -1.844018697739e-07 9.832905023359e-03 9.734183549881e-06 5.153601945877e+03
     1.439840000000e+05-6.146728992462e-08-1.365180814975e-01 1.676380634308e-07
     9.606884381981e-01 1.984375000000e+02 9.722774309148e-01-8.056407010261e-09
    -4.218032840856e-10 0.000000000000e+00 2.166000000000e+03 0.000000000000e+00
     2.000000000000e+00 0.000000000000e+00 5.587935447693e-09 1.000000000000e+00
     1.377960000000e+05 0.000000000000e+00
G18 2021 07 12 16 14 40 3.414461389184e-04-2.614797267597e-12 0.000000000000e+00
     5.200000000000e+01 5.968750000000e+00 4.750555022542e-09 2.089469818073e+00
     4.377216100693e-07 1.647147233598e-03 9.834766387939e-07 5.153658231735e+03
     1.448800000000e+05 1.154839992523e-07 1.981927381928e+00 1.173466444016e-07
     9.683868412447e-01 3.647187500000e+02 2.886423191020e+00-8.489996499575e-09
     1.964367538078e-11 0.000000000000e+00 2.166000000000e+03 0.000000000000e+00
     2.000000000000e+00 0.000000000000e+00-8.381903171539e-09 5.640000000000e+02
     1.377960000000e+05 0.000000000000e+00
